{
  "links" : {
    "next" : "https://api.nasa.gov/neo/rest/v1/feed?start_date=2013-03-23&end_date=2013-03-23&detailed=true&api_key=t0TVs3DtDT2H8Oy2Zy8m2eVrNsAVKAexjcZXUckd",
    "prev" : "https://api.nasa.gov/neo/rest/v1/feed?start_date=2013-03-21&end_date=2013-03-21&detailed=true&api_key=t0TVs3DtDT2H8Oy2Zy8m2eVrNsAVKAexjcZXUckd",
    "self" : "https://api.nasa.gov/neo/rest/v1/feed?start_date=2013-03-22&end_date=2013-03-22&detailed=true&api_key=t0TVs3DtDT2H8Oy2Zy8m2eVrNsAVKAexjcZXUckd"
  },
  "element_count" : 9,
  "near_earth_objects" : {
    "2013-03-22" : [ {
      "links" : {
        "self" : "https://api.nasa.gov/neo/rest/v1/neo/2138859?api_key=t0TVs3DtDT2H8Oy2Zy8m2eVrNsAVKAexjcZXUckd"
      },
      "neo_reference_id" : "2138859",
      "name" : "138859 (2000 WN63)",
      "nasa_jpl_url" : "http://ssd.jpl.nasa.gov/sbdb.cgi?sstr=2138859",
      "absolute_magnitude_h" : 19.0,
      "estimated_diameter" : {
        "kilometers" : {
          "estimated_diameter_min" : 0.4212646106,
          "estimated_diameter_max" : 0.9419763057
        },
        "meters" : {
          "estimated_diameter_min" : 421.2646105562,
          "estimated_diameter_max" : 941.9763057186
        },
        "miles" : {
          "estimated_diameter_min" : 0.2617616123,
          "estimated_diameter_max" : 0.5853167591
        },
        "feet" : {
          "estimated_diameter_min" : 1382.1017848971,
          "estimated_diameter_max" : 3090.4735428537
        }
      },
      "is_potentially_hazardous_asteroid" : false,
      "close_approach_data" : [ {
        "close_approach_date" : "2013-03-22",
        "epoch_date_close_approach" : 1363935600000,
        "relative_velocity" : {
          "kilometers_per_second" : "14.0284230017",
          "kilometers_per_hour" : "50502.3228062996",
          "miles_per_hour" : "31380.1794126144"
        },
        "miss_distance" : {
          "astronomical" : "0.293696183",
          "lunar" : "114.2478179932",
          "kilometers" : "43936324",
          "miles" : "27300768"
        },
        "orbiting_body" : "Earth"
      } ],
      "orbital_data" : {
        "orbit_id" : "63",
        "orbit_determination_date" : "2017-08-17 06:20:04",
        "orbit_uncertainty" : "0",
        "minimum_orbit_intersection" : ".140456",
        "jupiter_tisserand_invariant" : "4.214",
        "epoch_osculation" : "2458000.5",
        "eccentricity" : ".5317898583077602",
        "semi_major_axis" : "1.573354170896487",
        "inclination" : "13.15019648542084",
        "ascending_node_longitude" : "55.92606292817924",
        "orbital_period" : "720.8388257337361",
        "perihelion_distance" : ".7366603792875208",
        "perihelion_argument" : "144.339545380657",
        "aphelion_distance" : "2.410047962505454",
        "perihelion_time" : "2457826.443210257910",
        "mean_anomaly" : "86.92712166741427",
        "mean_motion" : ".4994181599937529",
        "equinox" : "J2000"
      }
    }, {
      "links" : {
        "self" : "https://api.nasa.gov/neo/rest/v1/neo/2179806?api_key=t0TVs3DtDT2H8Oy2Zy8m2eVrNsAVKAexjcZXUckd"
      },
      "neo_reference_id" : "2179806",
      "name" : "179806 (2002 TD66)",
      "nasa_jpl_url" : "http://ssd.jpl.nasa.gov/sbdb.cgi?sstr=2179806",
      "absolute_magnitude_h" : 20.2,
      "estimated_diameter" : {
        "kilometers" : {
          "estimated_diameter_min" : 0.2424124811,
          "estimated_diameter_max" : 0.5420507863
        },
        "meters" : {
          "estimated_diameter_min" : 242.4124811008,
          "estimated_diameter_max" : 542.0507863358
        },
        "miles" : {
          "estimated_diameter_min" : 0.1506280858,
          "estimated_diameter_max" : 0.3368146392
        },
        "feet" : {
          "estimated_diameter_min" : 795.3165644948,
          "estimated_diameter_max" : 1778.3819018419
        }
      },
      "is_potentially_hazardous_asteroid" : true,
      "close_approach_data" : [ {
        "close_approach_date" : "2013-03-22",
        "epoch_date_close_approach" : 1363935600000,
        "relative_velocity" : {
          "kilometers_per_second" : "24.9744537864",
          "kilometers_per_hour" : "89908.0336310836",
          "miles_per_hour" : "55865.3556748252"
        },
        "miss_distance" : {
          "astronomical" : "0.4511626647",
          "lunar" : "175.5022735596",
          "kilometers" : "67492976",
          "miles" : "41938192"
        },
        "orbiting_body" : "Earth"
      } ],
      "orbital_data" : {
        "orbit_id" : "62",
        "orbit_determination_date" : "2017-04-06 09:25:52",
        "orbit_uncertainty" : "0",
        "minimum_orbit_intersection" : ".00661698",
        "jupiter_tisserand_invariant" : "3.807",
        "epoch_osculation" : "2458000.5",
        "eccentricity" : ".5340424347870267",
        "semi_major_axis" : "1.858080258596945",
        "inclination" : "4.920611207673822",
        "ascending_node_longitude" : "335.7281654225535",
        "orbital_period" : "925.1137385749888",
        "perihelion_distance" : ".8657865532661242",
        "perihelion_argument" : "125.6409816017662",
        "aphelion_distance" : "2.850373963927765",
        "perihelion_time" : "2458183.995543116625",
        "mean_anomaly" : "288.5942984440607",
        "mean_motion" : ".389141340128113",
        "equinox" : "J2000"
      }
    }, {
      "links" : {
        "self" : "https://api.nasa.gov/neo/rest/v1/neo/3117466?api_key=t0TVs3DtDT2H8Oy2Zy8m2eVrNsAVKAexjcZXUckd"
      },
      "neo_reference_id" : "3117466",
      "name" : "(2002 FD6)",
      "nasa_jpl_url" : "http://ssd.jpl.nasa.gov/sbdb.cgi?sstr=3117466",
      "absolute_magnitude_h" : 22.3,
      "estimated_diameter" : {
        "kilometers" : {
          "estimated_diameter_min" : 0.0921626549,
          "estimated_diameter_max" : 0.2060819612
        },
        "meters" : {
          "estimated_diameter_min" : 92.1626548503,
          "estimated_diameter_max" : 206.0819612321
        },
        "miles" : {
          "estimated_diameter_min" : 0.057267201,
          "estimated_diameter_max" : 0.1280533543
        },
        "feet" : {
          "estimated_diameter_min" : 302.370924539,
          "estimated_diameter_max" : 676.1219416887
        }
      },
      "is_potentially_hazardous_asteroid" : false,
      "close_approach_data" : [ {
        "close_approach_date" : "2013-03-22",
        "epoch_date_close_approach" : 1363935600000,
        "relative_velocity" : {
          "kilometers_per_second" : "19.4361770103",
          "kilometers_per_hour" : "69970.2372370361",
          "miles_per_hour" : "43476.7843543128"
        },
        "miss_distance" : {
          "astronomical" : "0.2912765975",
          "lunar" : "113.306602478",
          "kilometers" : "43574360",
          "miles" : "27075852"
        },
        "orbiting_body" : "Earth"
      } ],
      "orbital_data" : {
        "orbit_id" : "49",
        "orbit_determination_date" : "2017-09-06 06:16:51",
        "orbit_uncertainty" : "0",
        "minimum_orbit_intersection" : ".00535155",
        "jupiter_tisserand_invariant" : "5.121",
        "epoch_osculation" : "2458000.5",
        "eccentricity" : ".341904800777934",
        "semi_major_axis" : "1.233085301668596",
        "inclination" : "10.06545380166284",
        "ascending_node_longitude" : "15.19213894768784",
        "orbital_period" : "500.1359908010143",
        "perihelion_distance" : ".8114875172593963",
        "perihelion_argument" : "256.8511468254181",
        "aphelion_distance" : "1.654683086077796",
        "perihelion_time" : "2457928.522047850436",
        "mean_anomaly" : "51.81003417159114",
        "mean_motion" : ".7198042264933314",
        "equinox" : "J2000"
      }
    } ]
  }
}